ONEWEB-0199             
1 48234U 21031AA  24328.68252696  .00000148  00000+0  36360-3 0  9994
2 48234  87.9031  43.1396 0001826  95.6153 264.5185 13.14503453173318
ONEWEB-0203             
1 48235U 21031AB  24328.21631767  .00000205  00000+0  51873-3 0  9994
2 48235  87.9027  43.2336 0001790  86.3708 273.7626 13.14501178173260
ONEWEB-0197             
1 48236U 21031AC  24328.19173177  .00000227  00000+0  57717-3 0  9995
2 48236  87.9027  43.2483 0002016 107.4706 252.6644 13.14505053173171
ONEWEB-0194             
1 48237U 21031AD  24327.71362228 -.00000220  00000+0 -62689-3 0  9999
2 48237  87.9030  43.3380 0001964  89.2029 270.9325 13.14500706173280
ONEWEB-0193             
1 48238U 21031AE  24328.64289015 -.00000038  00000+0 -13564-3 0  9990
2 48238  87.9026  43.1613 0001680  96.4389 263.6932 13.14501576173354
ONEWEB-0191             
1 48239U 21031AF  24327.74057313  .00000278  00000+0  71415-3 0  9998
2 48239  87.9026  43.3191 0001609  98.2255 261.9057 13.14504553173099
ONEWEB-0195             
1 48240U 21031AG  24328.17430437 -.00000127  00000+0 -37668-3 0  9997
2 48240  87.9024  43.2325 0001264 102.5086 257.6185 13.14503415173130
ONEWEB-0201             
1 48241U 21031AH  24327.78258892 -.00000195  00000+0 -55954-3 0  9990
2 48241  87.9031  43.3499 0001718 103.0203 257.1118 13.14500476173318
